STARLINK-34216          
1 64337U 25124W   26034.16008374  .00027575  00000+0  10070-2 0  9996
2 64337  43.0027 316.3639 0001687 261.6518  98.4142 15.27607888 36507
STARLINK-34218          
1 64338U 25124X   26034.10931576  .00027293  00000+0  99670-3 0  9991
2 64338  43.0016 313.3870 0001551 267.3922  92.6753 15.27612193 36534
STARLINK-34017          
1 64339U 25124Y   26034.18578671  .00026701  00000+0  97567-3 0  9999
2 64339  42.9971 316.5606 0001887 255.9908 104.0734 15.27600534 36504
STARLINK-33977          
1 64344U 25126A   26034.24209750  .00007959  00000+0  67393-3 0  9991
2 64344  70.0035 121.2529 0002541 257.5667 102.5207 14.98340836 36732
STARLINK-34426          
1 64345U 25126B   26034.30451904  .00003110  00000+0  26829-3 0  9993
2 64345  70.0010 121.0633 0003258 270.0972  89.9813 14.98335232 35537
STARLINK-34437          
1 64346U 25126C   26034.26697367  .00005364  00000+0  45673-3 0  9995
2 64346  70.0029 121.3353 0002805 256.2997 103.7850 14.98349276 35528
STARLINK-34407          
1 64347U 25126D   26034.27131660  .00004919  00000+0  41958-3 0  9993
2 64347  70.0027 121.3481 0003303 277.3541  82.7243 14.98343656 35520
STARLINK-34274          
1 64348U 25126E   26033.68283337  .00006964  00000+0  59056-3 0  9997
2 64348  70.0017 122.9096 0003226 270.9311  89.1479 14.98348413 35435
STARLINK-34301          
1 64349U 25126F   26034.24192485  .00010237  00000+0  86386-3 0  9998
2 64349  70.0016 121.2456 0003067 272.0215  88.0592 14.98356382 35524
STARLINK-34425          
1 64350U 25126G   26034.26280481  .00004730  00000+0  40380-3 0  9991
2 64350  70.0032 121.3167 0002724 274.2590  85.8258 14.98343449 35527
STARLINK-34389          
1 64351U 25126H   26034.25045213  .00011198  00000+0  94457-3 0  9993
2 64351  70.0019 121.2721 0003317 273.9712  86.1068 14.98339486 35528
STARLINK-34385          
1 64352U 25126J   26034.27531501 -.00040020  00000+0 -33603-2 0  9999
2 64352  70.0010 121.3608 0003336 282.0288  78.0497 14.98387956 35526
STARLINK-34431          
1 64353U 25126K   26034.23792373  .00005718  00000+0  48647-3 0  9990
2 64353  70.0019 121.2352 0002820 261.9312  98.1527 14.98341231 35525
STARLINK-34473          
1 64354U 25126L   26034.25028498  .00006563  00000+0  55712-3 0  9993
2 64354  70.0017 121.2767 0003020 270.8490  89.2323 14.98341622 35522
STARLINK-34270          
1 64355U 25126M   26034.25445484  .00004590  00000+0  39213-3 0  9998
2 64355  70.0029 121.2900 0003021 265.3396  94.7418 14.98337659 36735
STARLINK-34397          
1 64356U 25126N   26034.21273715  .00005770  00000+0  49084-3 0  9999
2 64356  70.0035 121.5442 0002265 258.7175 101.3729 14.98343135 35518
