[{"OBJECT_NAME":"STARLINK-34216","OBJECT_ID":"2025-124W","EPOCH":"2026-02-03T03:50:31.235136","MEAN_MOTION":15.27607888,"ECCENTRICITY":0.00016879,"INCLINATION":43.0027,"RA_OF_ASC_NODE":316.3639,"ARG_OF_PERICENTER":261.6518,"MEAN_ANOMALY":98.4142,"EPHEMERIS_TYPE":0,"CLASSIFICATION_TYPE":"U","NORAD_CAT_ID":64337,"ELEMENT_SET_NO":999,"REV_AT_EPOCH":3650,"BSTAR":0.0010069664,"MEAN_MOTION_DOT":0.00027575,"MEAN_MOTION_DDOT":0},{"OBJECT_NAME":"STARLINK-34218","OBJECT_ID":"2025-124X","EPOCH":"2026-02-03T02:37:24.881664","MEAN_MOTION":15.27612193,"ECCENTRICITY":0.00015511,"INCLINATION":43.0016,"RA_OF_ASC_NODE":313.387,"ARG_OF_PERICENTER":267.3922,"MEAN_ANOMALY":92.6753,"EPHEMERIS_TYPE":0,"CLASSIFICATION_TYPE":"U","NORAD_CAT_ID":64338,"ELEMENT_SET_NO":999,"REV_AT_EPOCH":3653,"BSTAR":0.00099669799,"MEAN_MOTION_DOT":0.00027293,"MEAN_MOTION_DDOT":0},{"OBJECT_NAME":"STARLINK-34017","OBJECT_ID":"2025-124Y","EPOCH":"2026-02-03T04:27:31.971744","MEAN_MOTION":15.27600534,"ECCENTRICITY":0.00018872,"INCLINATION":42.9971,"RA_OF_ASC_NODE":316.5606,"ARG_OF_PERICENTER":255.9908,"MEAN_ANOMALY":104.0734,"EPHEMERIS_TYPE":0,"CLASSIFICATION_TYPE":"U","NORAD_CAT_ID":64339,"ELEMENT_SET_NO":999,"REV_AT_EPOCH":3650,"BSTAR":0.00097567274,"MEAN_MOTION_DOT":0.00026701,"MEAN_MOTION_DDOT":0},{"OBJECT_NAME":"STARLINK-33977","OBJECT_ID":"2025-126A","EPOCH":"2026-02-03T05:48:37.224000","MEAN_MOTION":14.98340836,"ECCENTRICITY":0.00025414,"INCLINATION":70.0035,"RA_OF_ASC_NODE":121.2529,"ARG_OF_PERICENTER":257.5667,"MEAN_ANOMALY":102.5207,"EPHEMERIS_TYPE":0,"CLASSIFICATION_TYPE":"U","NORAD_CAT_ID":64344,"ELEMENT_SET_NO":999,"REV_AT_EPOCH":3673,"BSTAR":0.00067392941,"MEAN_MOTION_DOT":7.959e-5,"MEAN_MOTION_DDOT":0},{"OBJECT_NAME":"STARLINK-34426","OBJECT_ID":"2025-126B","EPOCH":"2026-02-03T07:18:30.445056","MEAN_MOTION":14.98335232,"ECCENTRICITY":0.00032588,"INCLINATION":70.001,"RA_OF_ASC_NODE":121.0633,"ARG_OF_PERICENTER":270.0972,"MEAN_ANOMALY":89.9813,"EPHEMERIS_TYPE":0,"CLASSIFICATION_TYPE":"U","NORAD_CAT_ID":64345,"ELEMENT_SET_NO":999,"REV_AT_EPOCH":3553,"BSTAR":0.00026828566,"MEAN_MOTION_DOT":3.11e-5,"MEAN_MOTION_DDOT":0},{"OBJECT_NAME":"STARLINK-34437","OBJECT_ID":"2025-126C","EPOCH":"2026-02-03T06:24:26.525088","MEAN_MOTION":14.98349276,"ECCENTRICITY":0.00028052,"INCLINATION":70.0029,"RA_OF_ASC_NODE":121.3353,"ARG_OF_PERICENTER":256.2997,"MEAN_ANOMALY":103.785,"EPHEMERIS_TYPE":0,"CLASSIFICATION_TYPE":"U","NORAD_CAT_ID":64346,"ELEMENT_SET_NO":999,"REV_AT_EPOCH":3552,"BSTAR":0.00045673205,"MEAN_MOTION_DOT":5.364e-5,"MEAN_MOTION_DDOT":0},{"OBJECT_NAME":"STARLINK-34407","OBJECT_ID":"2025-126D","EPOCH":"2026-02-03T06:30:41.754240","MEAN_MOTION":14.98343656,"ECCENTRICITY":0.00033033,"INCLINATION":70.0027,"RA_OF_ASC_NODE":121.3481,"ARG_OF_PERICENTER":277.3541,"MEAN_ANOMALY":82.7243,"EPHEMERIS_TYPE":0,"CLASSIFICATION_TYPE":"U","NORAD_CAT_ID":64347,"ELEMENT_SET_NO":999,"REV_AT_EPOCH":3552,"BSTAR":0.00041957894,"MEAN_MOTION_DOT":4.919e-5,"MEAN_MOTION_DDOT":0},{"OBJECT_NAME":"STARLINK-34274","OBJECT_ID":"2025-126E","EPOCH":"2026-02-02T16:23:16.803168","MEAN_MOTION":14.98348413,"ECCENTRICITY":0.00032263,"INCLINATION":70.0017,"RA_OF_ASC_NODE":122.9096,"ARG_OF_PERICENTER":270.9311,"MEAN_ANOMALY":89.1479,"EPHEMERIS_TYPE":0,"CLASSIFICATION_TYPE":"U","NORAD_CAT_ID":64348,"ELEMENT_SET_NO":999,"REV_AT_EPOCH":3543,"BSTAR":0.00059056128,"MEAN_MOTION_DOT":6.964e-5,"MEAN_MOTION_DDOT":0},{"OBJECT_NAME":"STARLINK-34301","OBJECT_ID":"2025-126F","EPOCH":"2026-02-03T05:48:22.307040","MEAN_MOTION":14.98356382,"ECCENTRICITY":0.00030675,"INCLINATION":70.0016,"RA_OF_ASC_NODE":121.2456,"ARG_OF_PERICENTER":272.0215,"MEAN_ANOMALY":88.0592,"EPHEMERIS_TYPE":0,"CLASSIFICATION_TYPE":"U","NORAD_CAT_ID":64349,"ELEMENT_SET_NO":999,"REV_AT_EPOCH":3552,"BSTAR":0.00086386008,"MEAN_MOTION_DOT":0.00010237,"MEAN_MOTION_DDOT":0},{"OBJECT_NAME":"STARLINK-34425","OBJECT_ID":"2025-126G","EPOCH":"2026-02-03T06:18:26.335584","MEAN_MOTION":14.98343449,"ECCENTRICITY":0.00027243,"INCLINATION":70.0032,"RA_OF_ASC_NODE":121.3167,"ARG_OF_PERICENTER":274.259,"MEAN_ANOMALY":85.8258,"EPHEMERIS_TYPE":0,"CLASSIFICATION_TYPE":"U","NORAD_CAT_ID":64350,"ELEMENT_SET_NO":999,"REV_AT_EPOCH":3552,"BSTAR":0.00040380392,"MEAN_MOTION_DOT":4.73e-5,"MEAN_MOTION_DDOT":0},{"OBJECT_NAME":"STARLINK-34389","OBJECT_ID":"2025-126H","EPOCH":"2026-02-03T06:00:39.064032","MEAN_MOTION":14.98339486,"ECCENTRICITY":0.00033174,"INCLINATION":70.0019,"RA_OF_ASC_NODE":121.2721,"ARG_OF_PERICENTER":273.9712,"MEAN_ANOMALY":86.1068,"EPHEMERIS_TYPE":0,"CLASSIFICATION_TYPE":"U","NORAD_CAT_ID":64351,"ELEMENT_SET_NO":999,"REV_AT_EPOCH":3552,"BSTAR":0.00094456927,"MEAN_MOTION_DOT":0.00011198,"MEAN_MOTION_DDOT":0},{"OBJECT_NAME":"STARLINK-34385","OBJECT_ID":"2025-126J","EPOCH":"2026-02-03T06:36:27.216864","MEAN_MOTION":14.98387956,"ECCENTRICITY":0.00033361,"INCLINATION":70.001,"RA_OF_ASC_NODE":121.3608,"ARG_OF_PERICENTER":282.0288,"MEAN_ANOMALY":78.0497,"EPHEMERIS_TYPE":0,"CLASSIFICATION_TYPE":"U","NORAD_CAT_ID":64352,"ELEMENT_SET_NO":999,"REV_AT_EPOCH":3552,"BSTAR":-0.0033602889,"MEAN_MOTION_DOT":-0.0004002,"MEAN_MOTION_DDOT":0},{"OBJECT_NAME":"STARLINK-34431","OBJECT_ID":"2025-126K","EPOCH":"2026-02-03T05:42:36.610272","MEAN_MOTION":14.98341231,"ECCENTRICITY":0.000282,"INCLINATION":70.0019,"RA_OF_ASC_NODE":121.2352,"ARG_OF_PERICENTER":261.9312,"MEAN_ANOMALY":98.1527,"EPHEMERIS_TYPE":0,"CLASSIFICATION_TYPE":"U","NORAD_CAT_ID":64353,"ELEMENT_SET_NO":999,"REV_AT_EPOCH":3552,"BSTAR":0.00048646766,"MEAN_MOTION_DOT":5.718e-5,"MEAN_MOTION_DDOT":0},{"OBJECT_NAME":"STARLINK-34473","OBJECT_ID":"2025-126L","EPOCH":"2026-02-03T06:00:24.622272","MEAN_MOTION":14.98341622,"ECCENTRICITY":0.00030205,"INCLINATION":70.0017,"RA_OF_ASC_NODE":121.2767,"ARG_OF_PERICENTER":270.849,"MEAN_ANOMALY":89.2323,"EPHEMERIS_TYPE":0,"CLASSIFICATION_TYPE":"U","NORAD_CAT_ID":64354,"ELEMENT_SET_NO":999,"REV_AT_EPOCH":3552,"BSTAR":0.00055711981,"MEAN_MOTION_DOT":6.563e-5,"MEAN_MOTION_DDOT":0},{"OBJECT_NAME":"STARLINK-34270","OBJECT_ID":"2025-126M","EPOCH":"2026-02-03T06:06:24.898176","MEAN_MOTION":14.98337659,"ECCENTRICITY":0.00030217,"INCLINATION":70.0029,"RA_OF_ASC_NODE":121.29,"ARG_OF_PERICENTER":265.3396,"MEAN_ANOMALY":94.7418,"EPHEMERIS_TYPE":0,"CLASSIFICATION_TYPE":"U","NORAD_CAT_ID":64355,"ELEMENT_SET_NO":999,"REV_AT_EPOCH":3673,"BSTAR":0.00039212654,"MEAN_MOTION_DOT":4.59e-5,"MEAN_MOTION_DDOT":0},{"OBJECT_NAME":"STARLINK-34397","OBJECT_ID":"2025-126N","EPOCH":"2026-02-03T05:06:20.489760","MEAN_MOTION":14.98343135,"ECCENTRICITY":0.00022659,"INCLINATION":70.0035,"RA_OF_ASC_NODE":121.5442,"ARG_OF_PERICENTER":258.7175,"MEAN_ANOMALY":101.3729,"EPHEMERIS_TYPE":0,"CLASSIFICATION_TYPE":"U","NORAD_CAT_ID":64356,"ELEMENT_SET_NO":999,"REV_AT_EPOCH":3551,"BSTAR":0.0004908368,"MEAN_MOTION_DOT":5.77e-5,"MEAN_MOTION_DDOT":0}]
